[
  {
    "OBJECT_NAME": "STARLINK-30440",
    "OBJECT_ID": "23147L",
    "EPOCH": "2025-11-11T04:50:49.502976",
    "MEAN_MOTION": 15.02549509,
    "ECCENTRICITY": 0.000109,
    "INCLINATION": 43.0038,
    "RA_OF_ASC_NODE": 249.9438,
    "ARG_OF_PERICENTER": 269.8944,
    "MEAN_ANOMALY": 90.1773,
    "EPHEMERIS_TYPE": 0,
    "CLASSIFICATION_TYPE": "U",
    "NORAD_CAT_ID": 57923,
    "ELEMENT_SET_NO": 999,
    "REV_AT_EPOCH": 11879,
    "BSTAR": 0.00015359,
    "MEAN_MOTION_DOT": 1.872e-05,
    "MEAN_MOTION_DDOT": 0.0,
    "TLE_LINE1": "1 57923U 23147L   25315.20196184  .00001872  00000+0  15359-3 0  9993",
    "TLE_LINE2": "2 57923  43.0038 249.9438 0001090 269.8944  90.1773 15.02549509118790",
    "COMMENT": "Grouped by shell and plane from TLE"
  },
  {
    "OBJECT_NAME": "STARLINK-30487",
    "OBJECT_ID": "23147M",
    "EPOCH": "2025-11-11T04:22:03.978336",
    "MEAN_MOTION": 15.02539423,
    "ECCENTRICITY": 8.38e-05,
    "INCLINATION": 43.0029,
    "RA_OF_ASC_NODE": 249.7773,
    "ARG_OF_PERICENTER": 279.0401,
    "MEAN_ANOMALY": 81.0347,
    "EPHEMERIS_TYPE": 0,
    "CLASSIFICATION_TYPE": "U",
    "NORAD_CAT_ID": 57924,
    "ELEMENT_SET_NO": 999,
    "REV_AT_EPOCH": 11879,
    "BSTAR": 7.5468e-05,
    "MEAN_MOTION_DOT": 8.16e-06,
    "MEAN_MOTION_DDOT": 0.0,
    "TLE_LINE1": "1 57924U 23147M   25315.18199049  .00000816  00000+0  75468-4 0  9999",
    "TLE_LINE2": "2 57924  43.0029 249.7773 0000838 279.0401  81.0347 15.02539423118791",
    "COMMENT": "Grouped by shell and plane from TLE"
  },
  {
    "OBJECT_NAME": "STARLINK-30452",
    "OBJECT_ID": "23147N",
    "EPOCH": "2025-11-11T04:46:02.413056",
    "MEAN_MOTION": 15.02538365,
    "ECCENTRICITY": 0.0001689,
    "INCLINATION": 43.0055,
    "RA_OF_ASC_NODE": 249.9143,
    "ARG_OF_PERICENTER": 266.4507,
    "MEAN_ANOMALY": 93.6142,
    "EPHEMERIS_TYPE": 0,
    "CLASSIFICATION_TYPE": "U",
    "NORAD_CAT_ID": 57925,
    "ELEMENT_SET_NO": 999,
    "REV_AT_EPOCH": 11876,
    "BSTAR": 4.126e-05,
    "MEAN_MOTION_DOT": 3.54e-06,
    "MEAN_MOTION_DDOT": 0.0,
    "TLE_LINE1": "1 57925U 23147N   25315.19863904  .00000354  00000+0  41260-4 0  9999",
    "TLE_LINE2": "2 57925  43.0055 249.9143 0001689 266.4507  93.6142 15.02538365118769",
    "COMMENT": "Grouped by shell and plane from TLE"
  },
  {
    "OBJECT_NAME": "STARLINK-30468",
    "OBJECT_ID": "23147P",
    "EPOCH": "2025-11-11T06:16:58.552320",
    "MEAN_MOTION": 15.02535055,
    "ECCENTRICITY": 9.07e-05,
    "INCLINATION": 43.0028,
    "RA_OF_ASC_NODE": 249.5388,
    "ARG_OF_PERICENTER": 266.0728,
    "MEAN_ANOMALY": 94.0011,
    "EPHEMERIS_TYPE": 0,
    "CLASSIFICATION_TYPE": "U",
    "NORAD_CAT_ID": 57926,
    "ELEMENT_SET_NO": 999,
    "REV_AT_EPOCH": 11877,
    "BSTAR": 8.2755e-06,
    "MEAN_MOTION_DOT": -9.2e-07,
    "MEAN_MOTION_DDOT": 0.0,
    "TLE_LINE1": "1 57926U 23147P   25315.26178880 -.00000092  00000+0  82755-5 0  9995",
    "TLE_LINE2": "2 57926  43.0028 249.5388 0000907 266.0728  94.0011 15.02535055118774",
    "COMMENT": "Grouped by shell and plane from TLE"
  },
  {
    "OBJECT_NAME": "STARLINK-30448",
    "OBJECT_ID": "23147R",
    "EPOCH": "2025-11-11T04:31:39.499968",
    "MEAN_MOTION": 15.02537345,
    "ECCENTRICITY": 0.000106,
    "INCLINATION": 43.0035,
    "RA_OF_ASC_NODE": 249.843,
    "ARG_OF_PERICENTER": 277.9492,
    "MEAN_ANOMALY": 82.123,
    "EPHEMERIS_TYPE": 0,
    "CLASSIFICATION_TYPE": "U",
    "NORAD_CAT_ID": 57928,
    "ELEMENT_SET_NO": 999,
    "REV_AT_EPOCH": 11876,
    "BSTAR": 0.00012101000000000001,
    "MEAN_MOTION_DOT": 1.432e-05,
    "MEAN_MOTION_DDOT": 0.0,
    "TLE_LINE1": "1 57928U 23147R   25315.18865162  .00001432  00000+0  12101-3 0  9998",
    "TLE_LINE2": "2 57928  43.0035 249.8430 0001060 277.9492  82.1230 15.02537345118769",
    "COMMENT": "Grouped by shell and plane from TLE"
  },
  {
    "OBJECT_NAME": "STARLINK-30488",
    "OBJECT_ID": "23147U",
    "EPOCH": "2025-11-11T06:02:35.501856",
    "MEAN_MOTION": 15.0254659,
    "ECCENTRICITY": 0.0001066,
    "INCLINATION": 43.0023,
    "RA_OF_ASC_NODE": 249.46,
    "ARG_OF_PERICENTER": 276.534,
    "MEAN_ANOMALY": 83.5381,
    "EPHEMERIS_TYPE": 0,
    "CLASSIFICATION_TYPE": "U",
    "NORAD_CAT_ID": 57931,
    "ELEMENT_SET_NO": 999,
    "REV_AT_EPOCH": 11880,
    "BSTAR": 0.00038351000000000005,
    "MEAN_MOTION_DOT": 4.982e-05,
    "MEAN_MOTION_DDOT": 0.0,
    "TLE_LINE1": "1 57931U 23147U   25315.25179979  .00004982  00000+0  38351-3 0  9992",
    "TLE_LINE2": "2 57931  43.0023 249.4600 0001066 276.5340  83.5381 15.02546590118807",
    "COMMENT": "Grouped by shell and plane from TLE"
  },
  {
    "OBJECT_NAME": "STARLINK-30471",
    "OBJECT_ID": "23147V",
    "EPOCH": "2025-11-11T05:38:35.348640",
    "MEAN_MOTION": 15.02554611,
    "ECCENTRICITY": 0.0001402,
    "INCLINATION": 43.0036,
    "RA_OF_ASC_NODE": 249.3299,
    "ARG_OF_PERICENTER": 253.311,
    "MEAN_ANOMALY": 106.7578,
    "EPHEMERIS_TYPE": 0,
    "CLASSIFICATION_TYPE": "U",
    "NORAD_CAT_ID": 57932,
    "ELEMENT_SET_NO": 999,
    "REV_AT_EPOCH": 11877,
    "BSTAR": 0.0,
    "MEAN_MOTION_DOT": -4.99e-06,
    "MEAN_MOTION_DDOT": 0.0,
    "TLE_LINE1": "1 57932U 23147V   25315.23513135 -.00000499  00000+0 -21858-4 0  9993",
    "TLE_LINE2": "2 57932  43.0036 249.3299 0001402 253.3110 106.7578 15.02554611118772",
    "COMMENT": "Grouped by shell and plane from TLE"
  },
  {
    "OBJECT_NAME": "STARLINK-30461",
    "OBJECT_ID": "23147W",
    "EPOCH": "2025-11-11T05:52:59.853216",
    "MEAN_MOTION": 15.02542588,
    "ECCENTRICITY": 0.0001011,
    "INCLINATION": 43.0018,
    "RA_OF_ASC_NODE": 249.4134,
    "ARG_OF_PERICENTER": 278.0783,
    "MEAN_ANOMALY": 81.9945,
    "EPHEMERIS_TYPE": 0,
    "CLASSIFICATION_TYPE": "U",
    "NORAD_CAT_ID": 57933,
    "ELEMENT_SET_NO": 999,
    "REV_AT_EPOCH": 11877,
    "BSTAR": 9.5505e-05,
    "MEAN_MOTION_DOT": 1.087e-05,
    "MEAN_MOTION_DDOT": 0.0,
    "TLE_LINE1": "1 57933U 23147W   25315.24513719  .00001087  00000+0  95505-4 0  9995",
    "TLE_LINE2": "2 57933  43.0018 249.4134 0001011 278.0783  81.9945 15.02542588118770",
    "COMMENT": "Grouped by shell and plane from TLE"
  }
]